[Satellite]
VERSION=1.1
NAME=ZHANGZHENG-1 (CSES)
NICKNAME=ZHANGZHENG-1 (CSES)
TLE1=1 43194U 18015C   22342.48489288  .00008882  00000+0  40800-3 0  9990
TLE2=2 43194  97.5423 113.2150 0013294 219.5796 205.9894 15.20546555269073
STATUS=0
